{
  "norad_id": 51768,
  "name": "STARLINK-3622",
  "history": [
    {
      "epoch": "2026-04-12T14:26:52.948608Z",
      "apogee_km": 540.4640961705345,
      "perigee_km": 538.9103528497089,
      "latitude_deg": 3.5029637941305934e-05,
      "longitude_deg": 129.35912278247517,
      "height_km": 540.5349235824947,
      "semi_major_axis_km": 6917.824224510121,
      "eccentricity": 0.0001123,
      "inclination_deg": 53.2175,
      "raan_deg": 186.8845,
      "arg_perigee_deg": 86.4319,
      "mean_anomaly_deg": 273.6802,
      "mean_motion_rev_day": 15.08858375
    },
    {
      "epoch": "2026-04-14T10:57:42.427584Z",
      "apogee_km": 540.4930290928596,
      "perigee_km": 539.052166881791,
      "latitude_deg": -3.5345656870187164e-05,
      "longitude_deg": 171.4978946187251,
      "height_km": 540.682790915354,
      "semi_major_axis_km": 6917.9095979873255,
      "eccentricity": 0.00010414,
      "inclination_deg": 53.217,
      "raan_deg": 178.5576,
      "arg_perigee_deg": 91.1209,
      "mean_anomaly_deg": 268.9902,
      "mean_motion_rev_day": 15.08830444
    },
    {
      "epoch": "2026-04-15T10:48:29.388096Z",
      "apogee_km": 540.4358516667126,
      "perigee_km": 539.0600227104051,
      "latitude_deg": 7.47452968962659e-05,
      "longitude_deg": 168.3624734543691,
      "height_km": 540.647333869959,
      "semi_major_axis_km": 6917.884937188558,
      "eccentricity": 9.944e-05,
      "inclination_deg": 53.2168,
      "raan_deg": 174.0971,
      "arg_perigee_deg": 90.2722,
      "mean_anomaly_deg": 269.8385,
      "mean_motion_rev_day": 15.08838512
    },
    {
      "epoch": "2026-04-16T13:50:02.236992Z",
      "apogee_km": 540.4202764875799,
      "perigee_km": 539.0339365206364,
      "latitude_deg": -6.786761112037882e-05,
      "longitude_deg": 116.81038939421973,
      "height_km": 540.5948989024683,
      "semi_major_axis_km": 6917.864106504107,
      "eccentricity": 0.0001002,
      "inclination_deg": 53.2167,
      "raan_deg": 169.0419,
      "arg_perigee_deg": 87.6568,
      "mean_anomaly_deg": 272.4538,
      "mean_motion_rev_day": 15.08845327
    },
    {
      "epoch": "2026-04-17T10:30:02.404512Z",
      "apogee_km": 540.3836037083347,
      "perigee_km": 539.0400191121826,
      "latitude_deg": -1.206192939283144e-06,
      "longitude_deg": 162.09509051484943,
      "height_km": 540.5526752409506,
      "semi_major_axis_km": 6917.848811410258,
      "eccentricity": 9.711e-05,
      "inclination_deg": 53.2167,
      "raan_deg": 165.176,
      "arg_perigee_deg": 85.2777,
      "mean_anomaly_deg": 274.8326,
      "mean_motion_rev_day": 15.08850331
    },
    {
      "epoch": "2026-04-18T19:53:08.706336Z",
      "apogee_km": 540.4454190418519,
      "perigee_km": 539.0369390445994,
      "latitude_deg": 6.852021473035364e-06,
      "longitude_deg": 13.703562876267648,
      "height_km": 540.552690776501,
      "semi_major_axis_km": 6917.878179043226,
      "eccentricity": 0.0001018,
      "inclination_deg": 53.2171,
      "raan_deg": 158.9318,
      "arg_perigee_deg": 83.0972,
      "mean_anomaly_deg": 277.0136,
      "mean_motion_rev_day": 15.08840723
    },
    {
      "epoch": "2026-04-19T19:43:55.493184Z",
      "apogee_km": 540.3739406476134,
      "perigee_km": 539.1231869376797,
      "latitude_deg": 1.248503084948585e-05,
      "longitude_deg": 10.56848686825443,
      "height_km": 540.7270945339038,
      "semi_major_axis_km": 6917.885563792646,
      "eccentricity": 9.04e-05,
      "inclination_deg": 53.2175,
      "raan_deg": 154.471,
      "arg_perigee_deg": 97.5519,
      "mean_anomaly_deg": 262.5576,
      "mean_motion_rev_day": 15.08838307
    },
    {
      "epoch": "2026-04-20T10:02:24.235584Z",
      "apogee_km": 540.4347227108283,
      "perigee_km": 539.0995672108502,
      "latitude_deg": -2.4821362158300346e-05,
      "longitude_deg": 152.68478995762612,
      "height_km": 540.4781294253722,
      "semi_major_axis_km": 6917.904144960839,
      "eccentricity": 9.65e-05,
      "inclination_deg": 53.2164,
      "raan_deg": 151.7947,
      "arg_perigee_deg": 73.8931,
      "mean_anomaly_deg": 286.2167,
      "mean_motion_rev_day": 15.08832228
    },
    {
      "epoch": "2026-04-21T19:25:29.930880Z",
      "apogee_km": 540.4891181284574,
      "perigee_km": 538.9976231205501,
      "latitude_deg": 4.735898599542756e-05,
      "longitude_deg": 4.295740066315036,
      "height_km": 540.4991665318263,
      "semi_major_axis_km": 6917.8803706245035,
      "eccentricity": 0.0001078,
      "inclination_deg": 53.2167,
      "raan_deg": 145.5504,
      "arg_perigee_deg": 79.1606,
      "mean_anomaly_deg": 280.9508,
      "mean_motion_rev_day": 15.08840006
    },
    {
      "epoch": "2026-04-22T19:16:16.927680Z",
      "apogee_km": 540.548702692302,
      "perigee_km": 538.9396035360878,
      "latitude_deg": 6.87672514046115e-05,
      "longitude_deg": 1.1598971783552565,
      "height_km": 540.689854562475,
      "semi_major_axis_km": 6917.881153114195,
      "eccentricity": 0.0001163,
      "inclination_deg": 53.2165,
      "raan_deg": 141.0897,
      "arg_perigee_deg": 93.5508,
      "mean_anomaly_deg": 266.5618,
      "mean_motion_rev_day": 15.0883975
    },
    {
      "epoch": "2026-04-23T06:23:56.229792Z",
      "apogee_km": 540.3482237952112,
      "perigee_km": 538.9596847948642,
      "latitude_deg": -4.2889590449100895e-06,
      "longitude_deg": -168.2927105277017,
      "height_km": 540.5244677600322,
      "semi_major_axis_km": 6917.790954295037,
      "eccentricity": 0.00010036,
      "inclination_deg": 53.2166,
      "raan_deg": 139.0079,
      "arg_perigee_deg": 87.8863,
      "mean_anomaly_deg": 272.2244,
      "mean_motion_rev_day": 15.0886926
    },
    {
      "epoch": "2026-04-24T12:36:16.752960Z",
      "apogee_km": 540.2381747530235,
      "perigee_km": 539.1576089429172,
      "latitude_deg": 3.7859947822403216e-05,
      "longitude_deg": 91.73040177952299,
      "height_km": 540.6793174549312,
      "semi_major_axis_km": 6917.83489184797,
      "eccentricity": 7.81e-05,
      "inclination_deg": 53.2166,
      "raan_deg": 133.357,
      "arg_perigee_deg": 99.0531,
      "mean_anomaly_deg": 261.055,
      "mean_motion_rev_day": 15.08854885
    },
    {
      "epoch": "2026-04-25T10:51:40.974912Z",
      "apogee_km": 540.5437825275967,
      "perigee_km": 538.900099243242,
      "latitude_deg": -1.270583191080078e-05,
      "longitude_deg": 112.80488757459094,
      "height_km": 540.5877197502472,
      "semi_major_axis_km": 6917.858940885419,
      "eccentricity": 0.0001188,
      "inclination_deg": 53.2164,
      "raan_deg": 129.1965,
      "arg_perigee_deg": 87.9036,
      "mean_anomaly_deg": 272.2092,
      "mean_motion_rev_day": 15.08847017
    },
    {
      "epoch": "2026-04-26T07:31:43.102848Z",
      "apogee_km": 540.6291299550376,
      "perigee_km": 538.9386668043098,
      "latitude_deg": -4.983362465718839e-05,
      "longitude_deg": 158.0803195939264,
      "height_km": 540.5577288733055,
      "semi_major_axis_km": 6917.920898379673,
      "eccentricity": 0.00012218,
      "inclination_deg": 53.2159,
      "raan_deg": 125.3296,
      "arg_perigee_deg": 81.7059,
      "mean_anomaly_deg": 278.4071,
      "mean_motion_rev_day": 15.08826747
    },
    {
      "epoch": "2026-04-27T16:54:47.750976Z",
      "apogee_km": 540.5926121179391,
      "perigee_km": 538.8921973602546,
      "latitude_deg": 8.979946935285125e-06,
      "longitude_deg": 9.695239276583463,
      "height_km": 540.665786527754,
      "semi_major_axis_km": 6917.879404739097,
      "eccentricity": 0.0001229,
      "inclination_deg": 53.2167,
      "raan_deg": 119.0849,
      "arg_perigee_deg": 91.8583,
      "mean_anomaly_deg": 268.255,
      "mean_motion_rev_day": 15.08840322
    },
    {
      "epoch": "2026-04-28T08:48:40.998816Z",
      "apogee_km": 540.612443717645,
      "perigee_km": 538.9618270189458,
      "latitude_deg": 4.534973306314818e-05,
      "longitude_deg": 127.59788805310127,
      "height_km": 540.7461880247466,
      "semi_major_axis_km": 6917.9241353682955,
      "eccentricity": 0.0001193,
      "inclination_deg": 53.2166,
      "raan_deg": 116.1123,
      "arg_perigee_deg": 94.3926,
      "mean_anomaly_deg": 265.7203,
      "mean_motion_rev_day": 15.08825688
    },
    {
      "epoch": "2026-04-29T08:39:28.330848Z",
      "apogee_km": 540.5731533222179,
      "perigee_km": 538.9477241400145,
      "latitude_deg": -6.342069285052728e-06,
      "longitude_deg": 124.45829317827649,
      "height_km": 540.4966336687819,
      "semi_major_axis_km": 6917.897438731116,
      "eccentricity": 0.00011748,
      "inclination_deg": 53.217,
      "raan_deg": 111.6493,
      "arg_perigee_deg": 78.6635,
      "mean_anomaly_deg": 281.4489,
      "mean_motion_rev_day": 15.08834422
    },
    {
      "epoch": "2026-04-30T08:30:14.422176Z",
      "apogee_km": 540.8218434037217,
      "perigee_km": 538.6938989413484,
      "latitude_deg": -8.783985306848629e-06,
      "longitude_deg": 121.32641813334835,
      "height_km": 540.0086254418816,
      "semi_major_axis_km": 6917.894871172534,
      "eccentricity": 0.0001538,
      "inclination_deg": 53.2175,
      "raan_deg": 107.1888,
      "arg_perigee_deg": 52.6724,
      "mean_anomaly_deg": 307.4408,
      "mean_motion_rev_day": 15.08835262
    },
    {
      "epoch": "2026-05-02T09:47:12.302592Z",
      "apogee_km": 540.6935855617621,
      "perigee_km": 538.8617217614728,
      "latitude_deg": -1.7268503057538247e-05,
      "longitude_deg": 90.84307046773912,
      "height_km": 540.843649523026,
      "semi_major_axis_km": 6917.914653661617,
      "eccentricity": 0.0001324,
      "inclination_deg": 53.2154,
      "raan_deg": 97.9706,
      "arg_perigee_deg": 100.7234,
      "mean_anomaly_deg": 259.3907,
      "mean_motion_rev_day": 15.0882879
    }
  ]
}